NORAD_CAT_ID,OBJECT_NAME,OBJECT_TYPE,EPOCH,MEAN_MOTION,ECCENTRICITY,INCLINATION,RA_OF_ASC_NODE,ARG_OF_PERICENTER,MEAN_ANOMALY,BSTAR,MEAN_MOTION_DOT,MEAN_MOTION_DDOT,TLE_LINE0,TLE_LINE1,TLE_LINE2,SEMIMAJOR_AXIS,PERIOD,APOGEE,PERIGEE,DECAYED
51132.0,STARLINK-3393,PAYLOAD,2022-10-01 18:11:19,15.08848004,0.0001754,53.2164,172.7442,48.5079,311.6063,0.0001568,2.209e-05,0.0,0 STARLINK-3393,1 51132U 22005AE  22274.75786224  .00002209  00000-0  15680-3 0  9995,2 51132  53.2164 172.7442 0001754  48.5079 311.6063 15.08848004 40396,6917.856,95.437,540.934,538.508,0.0
51132.0,STARLINK-3393,PAYLOAD,2022-10-01 21:22:05,15.08846518,0.0001709,53.2164,172.1496,50.231,309.8833,0.00013382,1.843e-05,0.0,0 STARLINK-3393,1 51132U 22005AE  22274.89034241  .00001843  00000-0  13382-3 0  9995,2 51132  53.2164 172.1496 0001709  50.2310 309.8833 15.08846518 39296,6917.86,95.437,540.908,538.543,0.0
51132.0,STARLINK-3393,PAYLOAD,2022-10-02 11:40:34,15.08827396,0.0001779,53.2167,169.4737,50.113,310.0018,-0.00010441,-1.949e-05,0.0,0 STARLINK-3393,1 51132U 22005AE  22275.48651386 -.00001949  00000-0 -10441-3 0  9998,2 51132  53.2167 169.4737 0001779  50.1130 310.0018 15.08827396 39384,6917.919,95.438,541.015,538.553,0.0
51132.0,STARLINK-3393,PAYLOAD,2022-10-02 18:02:07,15.08837124,0.000185,53.2164,168.2852,49.8164,310.2990000000001,1.8391e-06,-2.59e-06,0.0,0 STARLINK-3393,1 51132U 22005AE  22275.75147076 -.00000259  00000-0  18391-5 0  9990,2 51132  53.2164 168.2852 0001850  49.8164 310.2990 15.08837124 40549,6917.889,95.438,541.034,538.474,0.0
51132.0,STARLINK-3393,PAYLOAD,2022-10-02 19:37:30,15.08837503,0.0001791,53.2165,167.9868,52.3537,307.7617,9.6593e-06,-1.34e-06,0.0,0 STARLINK-3393,1 51132U 22005AE  22275.81771038 -.00000134  00000-0  96593-5 0  9990,2 51132  53.2165 167.9868 0001791  52.3537 307.7617 15.08837503 39434,6917.888000000001,95.438,540.992,538.514,0.0
51132.0,STARLINK-3393,PAYLOAD,2022-10-03 09:55:57,15.08853122,0.0001769,53.2166,165.31099999999995,50.9845,309.1305,0.00025551,3.782e-05,0.0,0 STARLINK-3393,1 51132U 22005AE  22276.41386317  .00003782  00000-0  25551-3 0  9994,2 51132  53.2166 165.3110 0001769  50.9845 309.1305 15.08853122 40648,6917.84,95.437,540.929,538.482,0.0
51132.0,STARLINK-3393,PAYLOAD,2022-10-03 11:31:20,15.08854255,0.000177,53.2165,165.0137,50.2385,309.8762,0.00026499,3.933e-05,0.0,0 STARLINK-3393,1 51132U 22005AE  22276.48010277  .00003933  00000-0  26499-3 0  9990,2 51132  53.2165 165.0137 0001770  50.2385 309.8762 15.08854255 39535,6917.837,95.437,540.9259999999998,538.477,0.0
51132.0,STARLINK-3393,PAYLOAD,2022-10-03 19:28:16,15.08856118,0.0001654,53.2157,163.5261,51.7438,308.3703,0.00053303,8.209e-05,0.0,0 STARLINK-3393,1 51132U 22005AE  22276.81130360  .00008209  00000-0  53303-3 0  9998,2 51132  53.2157 163.5261 0001654  51.7438 308.3703 15.08856118 39587,6917.831,95.437,540.84,538.552,0.0
51132.0,STARLINK-3393,PAYLOAD,2022-10-04 00:14:25,15.08851042,0.0001547,53.2161,162.6345,50.9795,309.1335,0.00037524,5.691e-05,0.0,0 STARLINK-3393,1 51132U 22005AE  22277.01002312  .00005691  00000-0  37524-3 0  9995,2 51132  53.2161 162.6345 0001547  50.9795 309.1335 15.08851042 40733,6917.847,95.437,540.7819999999998,538.641,0.0
51132.0,STARLINK-3393,PAYLOAD,2022-10-04 09:46:44,15.08851842,0.0001607,53.2166,160.8503,49.9537,310.1596,0.00028746,4.291e-05,0.0,0 STARLINK-3393,1 51132U 22005AE  22277.40746063  .00004291  00000-0  28746-3 0  9997,2 51132  53.2166 160.8503 0001607  49.9537 310.1596 15.08851842 39673,6917.844,95.437,540.821,538.597,0.0
51132.0,STARLINK-3393,PAYLOAD,2022-10-04 19:19:03,15.08834506,0.000131,53.217,159.0625,76.1617,283.952,-6.479e-05,-1.319e-05,0.0,0 STARLINK-3393,1 51132U 22005AE  22277.80490531 -.00001319  00000-0 -64790-4 0  9997,2 51132  53.2170 159.0625 0001310  76.1617 283.9520 15.08834506 39734,6917.897,95.438,540.668,538.856,0.0
51132.0,STARLINK-3393,PAYLOAD,2022-10-05 01:40:37,15.088350699999998,0.0001684,53.2175,157.8756,55.6956,304.4196,3.0382e-05,1.95e-06,0.0,0 STARLINK-3393,1 51132U 22005AE  22278.06987329  .00000195  00000-0  30382-4 0  9991,2 51132  53.2175 157.8756 0001684  55.6956 304.4196 15.08835070 40896,6917.895,95.438,540.925,538.595,0.0
51132.0,STARLINK-3393,PAYLOAD,2022-10-05 09:37:32,15.088399300000004,0.0001792,53.2166,156.3895,53.5301,306.5856,-4.7286e-05,-1.041e-05,0.0,0 STARLINK-3393,1 51132U 22005AE  22278.40107229 -.00001041  00000-0 -47286-4 0  9996,2 51132  53.2166 156.3895 0001792  53.5301 306.5856 15.08839930 39821,6917.880999999999,95.438,540.985,538.506,0.0
51132.0,STARLINK-3393,PAYLOAD,2022-10-05 20:45:14,15.08835283,0.0001617,53.2161,154.3077,59.0468,301.0683,-4.1813e-05,-9.53e-06,0.0,0 STARLINK-3393,1 51132U 22005AE  22278.86475232 -.00000953  00000-0 -41813-4 0  9999,2 51132  53.2161 154.3077 0001617  59.0468 301.0683 15.08835283 39899,6917.895,95.438,540.878,538.641,0.0
51132.0,STARLINK-3393,PAYLOAD,2022-10-06 11:03:43,15.08832768,0.0001334,53.2162,151.6311,64.9419,295.1712,-1.3283e-05,-4.99e-06,0.0,0 STARLINK-3393,1 51132U 22005AE  22279.46091649 -.00000499  00000-0 -13283-4 0  9997,2 51132  53.2162 151.6311 0001334  64.9419 295.1712 15.08832768 39989,6917.901999999999,95.438,540.69,538.845,0.0
51132.0,STARLINK-3393,PAYLOAD,2022-10-06 19:00:38,15.08837744,0.0001727,53.2153,150.143,66.2551,293.8623,0.00021508,3.136e-05,0.0,0 STARLINK-3393,1 51132U 22005AE  22279.79211738  .00003136  00000-0  21508-3 0  9993,2 51132  53.2153 150.1430 0001727  66.2551 293.8623 15.08837744 40036,6917.887,95.438,540.947,538.558,0.0
51132.0,STARLINK-3393,PAYLOAD,2022-10-07 01:22:11,15.088316399999998,0.000172,53.2166,148.9556,49.0165,311.0975,0.00020301,2.944e-05,0.0,0 STARLINK-3393,1 51132U 22005AE  22280.05708214  .00002944  00000-0  20301-3 0  9990,2 51132  53.2166 148.9556 0001720  49.0165 311.0975 15.08831640 41197,6917.906,95.438,540.961,538.581,0.0
51132.0,STARLINK-3393,PAYLOAD,2022-10-07 10:54:30,15.08844702,0.0001686999999999,53.2163,147.1715,51.1117,309.0025,0.00027749,4.132e-05,0.0,0 STARLINK-3393,1 51132U 22005AE  22280.45451613  .00004132  00000-0  27749-3 0  9996,2 51132  53.2163 147.1715 0001687  51.1117 309.0025 15.08844702 40134,6917.866,95.437,540.898,538.564,0.0
51132.0,STARLINK-3393,PAYLOAD,2022-10-07 22:02:12,15.08834236,0.0001669,53.2165,145.0896,49.4219,310.6918,6.4396e-05,7.37e-06,0.0,0 STARLINK-3393,1 51132U 22005AE  22280.91820202  .00000737  00000-0  64396-4 0  9998,2 51132  53.2165 145.0896 0001669  49.4219 310.6918 15.08834236 40204,6917.898,95.438,540.918,538.6080000000002,0.0
51132.0,STARLINK-3393,PAYLOAD,2022-10-08 10:45:17,15.08837285,0.0001736,53.2166,142.7132,52.8054,307.3097,9.0738e-05,1.156e-05,0.0,0 STARLINK-3393,1 51132U 22005AE  22281.44812265  .00001156  00000-0  90738-4 0  9992,2 51132  53.2166 142.7132 0001736  52.8054 307.3097 15.08837285 41403,6917.889,95.438,540.955,538.553,0.0
51132.0,STARLINK-3393,PAYLOAD,2022-10-08 12:20:41,15.08833222,0.0001595999999999,53.2167,142.4152,55.2806,304.8336,8.14e-05,1.007e-05,0.0,0 STARLINK-3393,1 51132U 22005AE  22281.51436512  .00001007  00000-0  81400-4 0  9998,2 51132  53.2167 142.4152 0001596  55.2806 304.8336 15.08833222 40290,6917.901,95.438,540.87,538.6619999999998,0.0
51132.0,STARLINK-3393,PAYLOAD,2022-10-08 20:17:37,15.0882737,0.0001593,53.2155,140.9257,60.91,299.2051,-0.00010099,-1.894e-05,0.0,0 STARLINK-3393,1 51132U 22005AE  22281.84556924 -.00001894  00000-0 -10099-3 0  9995,2 51132  53.2155 140.9257 0001593  60.9100 299.2051 15.08827370 40347,6917.919,95.438,540.886,538.682,0.0
51132.0,STARLINK-3393,PAYLOAD,2022-10-09 10:36:05,15.08836293,0.0001668,53.2162,138.2505,49.8299,310.2839,5.1538e-05,5.32e-06,0.0,0 STARLINK-3393,1 51132U 22005AE  22282.44172954  .00000532  00000-0  51538-4 0  9999,2 51132  53.2162 138.2505 0001668  49.8299 310.2839 15.08836293 41555,6917.892,95.438,540.911,538.6030000000002,0.0
51132.0,STARLINK-3393,PAYLOAD,2022-10-09 12:11:28,15.08837956,0.0001696999999999,53.2161,137.9533,49.941,310.1731,0.00015356,2.157e-05,0.0,0 STARLINK-3393,1 51132U 22005AE  22282.50796924  .00002157  00000-0  15356-3 0  9997,2 51132  53.2161 137.9533 0001697  49.9410 310.1731 15.08837956 40443,6917.887,95.438,540.9259999999998,538.578,0.0
51132.0,STARLINK-3393,PAYLOAD,2022-10-09 20:08:24,15.08852249,0.000171,53.2158,136.4668,51.9953,308.1194,0.0010626,0.00016669,0.0,0 STARLINK-3393,1 51132U 22005AE  22282.83917018  .00016669  00000-0  10626-2 0  9999,2 51132  53.2158 136.4668 0001710  51.9953 308.1194 15.08852249 40490,6917.843000000003,95.437,540.891,538.525,0.0
51132.0,STARLINK-3393,PAYLOAD,2022-10-10 12:02:15,15.0884394,0.0001781999999999,53.2159,133.494,55.0904,305.0256,0.00036483,5.524e-05,0.0,0 STARLINK-3393,1 51132U 22005AE  22283.50157186  .00005524  00000-0  36483-3 0  9994,2 51132  53.2159 133.4940 0001782  55.0904 305.0256 15.08843940 41710,6917.868,95.437,540.966,538.501,0.0
51132.0,STARLINK-3393,PAYLOAD,2022-10-10 16:48:25,15.08850727,0.0001908,53.2154,132.6009,51.6841,308.4322,0.00048234,7.399e-05,0.0,0 STARLINK-3393,1 51132U 22005AE  22283.70029031  .00007399  00000-0  48234-3 0  9992,2 51132  53.2154 132.6009 0001908  51.6841 308.4322 15.08850727 40625,6917.848000000001,95.437,541.033,538.393,0.0
51132.0,STARLINK-3393,PAYLOAD,2022-10-11 16:39:12,15.08842653,0.000188,53.2137,128.138,72.3032,287.8165,0.00023103,3.391e-05,0.0,0 STARLINK-3393,1 51132U 22005AE  22284.69389358  .00003391  00000-0  23103-3 0  9998,2 51132  53.2137 128.1380 0001880  72.3032 287.8165 15.08842653 41893,6917.871999999999,95.437,541.038,538.437,0.0
51132.0,STARLINK-3393,PAYLOAD,2022-10-12 06:57:40,15.08843778,0.0002075,53.2145,125.4629,57.9433,302.176,0.00037822,5.737e-05,0.0,0 STARLINK-3393,1 51132U 22005AE  22285.29005602  .00005737  00000-0  37822-3 0  9991,2 51132  53.2145 125.4629 0002075  57.9433 302.1760 15.08843778 40866,6917.869000000002,95.437,541.169,538.298,0.0
